{"type":"FeatureCollection","features":[{"type":"Feature","geometry":{"type":"Point","coordinates":[-122.276478,49.038649]},"properties":{"osm_id":"way/278763472","kind":"ambulance_station","name":"BC Ambulance Service Station 202","address":"2000 Abbotsford Way, V2S 6X8","phone":null,"emergency_phone":null,"email":null,"website":"http://www.bcehs.ca","emergency":null,"flood_status":"clear","flooded_fraction":0.0,"confidence":1.0,"length_m":null,"observed_utc":"2021-11-16T14:20:31.869322Z","osm_date":"2021-11-16","shape":"point"}},{"type":"Feature","geometry":{"type":"Point","coordinates":[-122.271474,49.03004]},"properties":{"osm_id":"way/375025658","kind":"fire_station","name":"Abbotsford Fire Rescue Service Training Centre","address":"1544 Riverside Road, V2S 8J2","phone":"+1-604-859-6610","emergency_phone":null,"email":null,"website":"http://www.abbotsford.ca/public_safety/fire_rescue_service/operations.htm#locations","emergency":null,"flood_status":"flooded","flooded_fraction":0.76,"confidence":0.76,"length_m":null,"observed_utc":"2021-11-16T14:20:31.869322Z","osm_date":"2021-11-16","shape":"point"}},{"type":"Feature","geometry":{"type":"Point","coordinates":[-122.229162,49.036196]},"properties":{"osm_id":"way/373851842","kind":"fire_station","name":"Fire Hall No. 2 (Sumas Prairie)","address":"35995 North Parallel Road, Abbotsford, V3G 2E3","phone":null,"emergency_phone":null,"email":null,"website":"http://www.abbotsford.ca/public_safety/fire_rescue_service/operations.htm#locations","emergency":null,"flood_status":"flooded","flooded_fraction":1.0,"confidence":1.0,"length_m":null,"observed_utc":"2021-11-16T14:20:31.869322Z","osm_date":"2021-11-16","shape":"point"}},{"type":"Feature","geometry":{"type":"Point","coordinates":[-122.255413,49.061826]},"properties":{"osm_id":"node/1924835170","kind":"fire_station","name":"Firehall 7 - Abbotsford Fire Dept","address":null,"phone":null,"emergency_phone":null,"email":null,"website":null,"emergency":null,"flood_status":"clear","flooded_fraction":0.0,"confidence":1.0,"length_m":null,"observed_utc":"2021-11-16T14:20:31.869322Z","osm_date":"2021-11-16","shape":"point"}},{"type":"Feature","geometry":{"type":"Point","coordinates":[-122.277407,49.03797]},"properties":{"osm_id":"node/3126106617","kind":"police","name":"Community Policing Office","address":null,"phone":null,"emergency_phone":null,"email":null,"website":"http://www.abbypd.ca/Locations-and-Hours","emergency":null,"flood_status":"clear","flooded_fraction":0.0,"confidence":1.0,"length_m":null,"observed_utc":"2021-11-16T14:20:31.869322Z","osm_date":"2021-11-16","shape":"point"}},{"type":"Feature","geometry":{"type":"Point","coordinates":[-122.279113,49.039905]},"properties":{"osm_id":"node/5793114453","kind":"police","name":null,"address":null,"phone":null,"emergency_phone":null,"email":null,"website":null,"emergency":null,"flood_status":"clear","flooded_fraction":0.0,"confidence":1.0,"length_m":null,"observed_utc":"2021-11-16T14:20:31.869322Z","osm_date":"2021-11-16","shape":"point"}},{"type":"Feature","geometry":{"type":"Point","coordinates":[-122.277244,49.037969]},"properties":{"osm_id":"node/3126152145","kind":"clinic","name":"Abbotsford Public Health Unit","address":null,"phone":null,"emergency_phone":null,"email":null,"website":null,"emergency":null,"flood_status":"clear","flooded_fraction":0.0,"confidence":1.0,"length_m":null,"observed_utc":"2021-11-16T14:20:31.869322Z","osm_date":"2021-11-16","shape":"point"}},{"type":"Feature","geometry":{"type":"Point","coordinates":[-122.278827,49.039038]},"properties":{"osm_id":"node/3540104436","kind":"clinic","name":"CareXus Clinic","address":"34143 Marshall Road, V2S 1L8","phone":"+1-604-859-3982","emergency_phone":null,"email":null,"website":"https://www.carexus.ca","emergency":null,"flood_status":"clear","flooded_fraction":0.0,"confidence":1.0,"length_m":null,"observed_utc":"2021-11-16T14:20:31.869322Z","osm_date":"2021-11-16","shape":"point"}},{"type":"Feature","geometry":{"type":"Point","coordinates":[-122.28086,49.044514]},"properties":{"osm_id":"node/8244059690","kind":"clinic","name":"Fraser Valley Cataract & Laser","address":"34077 Gladys Avenue, V2S 2E8","phone":"+1-604-853-5575","emergency_phone":null,"email":null,"website":"https://www.fvcl.ca","emergency":null,"flood_status":"clear","flooded_fraction":0.0,"confidence":1.0,"length_m":null,"observed_utc":"2021-11-16T14:20:31.869322Z","osm_date":"2021-11-16","shape":"point"}},{"type":"Feature","geometry":{"type":"Point","coordinates":[-122.268075,49.047525]},"properties":{"osm_id":"node/3751078436","kind":"clinic","name":"Glenn Mountain Orthopaedic & Sports Physiotherapy Rehabilitation Centre","address":null,"phone":"+1-604-557-0198","emergency_phone":null,"email":null,"website":"http://www.glennmountainphysiotherapy.com","emergency":null,"flood_status":"clear","flooded_fraction":0.0,"confidence":1.0,"length_m":null,"observed_utc":"2021-11-16T14:20:31.869322Z","osm_date":"2021-11-16","shape":"point"}},{"type":"Feature","geometry":{"type":"Point","coordinates":[-122.271083,49.038593]},"properties":{"osm_id":"node/4449885091","kind":"clinic","name":"Sumas Medical Clinic","address":null,"phone":null,"emergency_phone":null,"email":null,"website":null,"emergency":null,"flood_status":"clear","flooded_fraction":0.0,"confidence":1.0,"length_m":null,"observed_utc":"2021-11-16T14:20:31.869322Z","osm_date":"2021-11-16","shape":"point"}},{"type":"Feature","geometry":{"type":"Point","coordinates":[-122.27865,49.043515]},"properties":{"osm_id":"node/3903081160","kind":"shelter","name":"The Salvation Army Centre of Hope","address":null,"phone":"+1-604-852-9305","emergency_phone":null,"email":null,"website":"http://www.careandshare.ca","emergency":null,"flood_status":"clear","flooded_fraction":0.0,"confidence":1.0,"length_m":null,"observed_utc":"2021-11-16T14:20:31.869322Z","osm_date":"2021-11-16","shape":"point"}},{"type":"Feature","geometry":{"type":"Point","coordinates":[-122.248779,49.034391]},"properties":{"osm_id":"way/421722144","kind":"care_home","name":"Cascade Court","address":"35230 DeLair Road, V3G 2W5","phone":"+1-604-852-1139","emergency_phone":null,"email":null,"website":"http://www3.telus.net/cascadecourt","emergency":null,"flood_status":"flooded","flooded_fraction":0.67,"confidence":0.67,"length_m":null,"observed_utc":"2021-11-16T14:20:31.869322Z","osm_date":"2021-11-16","shape":"point"}},{"type":"Feature","geometry":{"type":"Point","coordinates":[-122.253827,49.062535]},"properties":{"osm_id":"way/374781005","kind":"school","name":"Abbotsford Christian School","address":null,"phone":null,"emergency_phone":null,"email":null,"website":null,"emergency":null,"flood_status":"clear","flooded_fraction":0.0,"confidence":1.0,"length_m":null,"observed_utc":"2021-11-16T14:20:31.869322Z","osm_date":"2021-11-16","shape":"point"}},{"type":"Feature","geometry":{"type":"Point","coordinates":[-122.219404,49.05032]},"properties":{"osm_id":"way/374048509","kind":"school","name":"Abbotsford School of Integrated Arts (ASIA) - Sumas Mountain Campus","address":"36232 Lower Sumas Mountain Road, V3G 2J3","phone":"+1-604-850-5207","emergency_phone":null,"email":null,"website":"http://sumasmountain.sd34.bc.ca","emergency":null,"flood_status":"flooded","flooded_fraction":0.99,"confidence":0.99,"length_m":null,"observed_utc":"2021-11-16T14:20:31.869322Z","osm_date":"2021-11-16","shape":"point"}},{"type":"Feature","geometry":{"type":"Point","coordinates":[-122.21941,49.083671]},"properties":{"osm_id":"way/374554983","kind":"school","name":"Auguston Traditional Elementary School","address":"36367 Stephen Leacock Drive, V3G 2Z6","phone":"+1-604-557-0422","emergency_phone":null,"email":null,"website":"http://auguston.sd34.bc.ca","emergency":null,"flood_status":"clear","flooded_fraction":0.0,"confidence":1.0,"length_m":null,"observed_utc":"2021-11-16T14:20:31.869322Z","osm_date":"2021-11-16","shape":"point"}},{"type":"Feature","geometry":{"type":"Point","coordinates":[-122.096308,49.09567]},"properties":{"osm_id":"way/397021656","kind":"school","name":"Barrowtown Elementary School","address":null,"phone":null,"emergency_phone":null,"email":null,"website":null,"emergency":null,"flood_status":"clear","flooded_fraction":0.0,"confidence":1.0,"length_m":null,"observed_utc":"2021-11-16T14:20:31.869322Z","osm_date":"2021-11-16","shape":"point"}},{"type":"Feature","geometry":{"type":"Point","coordinates":[-122.273614,49.057541]},"properties":{"osm_id":"node/3743622535","kind":"school","name":"Creative Edge School of Arts","address":null,"phone":null,"emergency_phone":null,"email":null,"website":"http://www.creativeedgebc.com","emergency":null,"flood_status":"clear","flooded_fraction":0.0,"confidence":1.0,"length_m":null,"observed_utc":"2021-11-16T14:20:31.869322Z","osm_date":"2021-11-16","shape":"point"}},{"type":"Feature","geometry":{"type":"Point","coordinates":[-122.259731,49.066297]},"properties":{"osm_id":"way/166896651","kind":"school","name":"Dr. Thomas A. Swift Elementary School","address":"34800 Mierau Street, Abbotsford, V2S 5Y4","phone":"+1-604-853-7730","emergency_phone":null,"email":null,"website":"http://swift.sd34.bc.ca","emergency":null,"flood_status":"clear","flooded_fraction":0.0,"confidence":1.0,"length_m":null,"observed_utc":"2021-11-16T14:20:31.869322Z","osm_date":"2021-11-16","shape":"point"}},{"type":"Feature","geometry":{"type":"Point","coordinates":[-122.268158,49.058515]},"properties":{"osm_id":"way/371617807","kind":"school","name":"Margaret Stenersen Elementary School","address":null,"phone":"+1-604-859-3151","emergency_phone":null,"email":null,"website":"http://stenersen.sd34.bc.ca","emergency":null,"flood_status":"clear","flooded_fraction":0.0,"confidence":1.0,"length_m":null,"observed_utc":"2021-11-16T14:20:31.869322Z","osm_date":"2021-11-16","shape":"point"}},{"type":"Feature","geometry":{"type":"Point","coordinates":[-122.259144,49.043792]},"properties":{"osm_id":"way/395017962","kind":"school","name":"McMillan Elementary","address":null,"phone":null,"emergency_phone":null,"email":null,"website":null,"emergency":null,"flood_status":"clear","flooded_fraction":0.0,"confidence":1.0,"length_m":null,"observed_utc":"2021-11-16T14:20:31.869322Z","osm_date":"2021-11-16","shape":"point"}},{"type":"Feature","geometry":{"type":"Point","coordinates":[-122.234651,49.042945]},"properties":{"osm_id":"way/26194118","kind":"school","name":"Mountain Elementary School","address":"2299 Mountain Drive, Abbotsford, V3G 1E6","phone":null,"emergency_phone":null,"email":null,"website":"http://mountain.sd34.bc.ca","emergency":null,"flood_status":"clear","flooded_fraction":0.0,"confidence":1.0,"length_m":null,"observed_utc":"2021-11-16T14:20:31.869322Z","osm_date":"2021-11-16","shape":"point"}},{"type":"Feature","geometry":{"type":"Point","coordinates":[-122.243032,49.064281]},"properties":{"osm_id":"way/374385994","kind":"school","name":"Prince Charles Elementary","address":"35410 McKee Road, Abbotsford, V3G 3B1","phone":"+1-604-852-9323","emergency_phone":null,"email":null,"website":"http://princecharles.sd34.bc.ca","emergency":null,"flood_status":"clear","flooded_fraction":0.0,"confidence":1.0,"length_m":null,"observed_utc":"2021-11-16T14:20:31.869322Z","osm_date":"2021-11-16","shape":"point"}},{"type":"Feature","geometry":{"type":"Point","coordinates":[-122.25392,49.069351]},"properties":{"osm_id":"way/374781107","kind":"school","name":"Robert Bateman Secondary School","address":null,"phone":null,"emergency_phone":null,"email":null,"website":null,"emergency":null,"flood_status":"clear","flooded_fraction":0.0,"confidence":1.0,"length_m":null,"observed_utc":"2021-11-16T14:20:31.869322Z","osm_date":"2021-11-16","shape":"point"}},{"type":"Feature","geometry":{"type":"Point","coordinates":[-122.248146,49.072192]},"properties":{"osm_id":"way/396505536","kind":"school","name":"Sandy Hill Elementary School","address":null,"phone":null,"emergency_phone":null,"email":null,"website":null,"emergency":null,"flood_status":"clear","flooded_fraction":0.0,"confidence":1.0,"length_m":null,"observed_utc":"2021-11-16T14:20:31.869322Z","osm_date":"2021-11-16","shape":"point"}},{"type":"Feature","geometry":{"type":"Point","coordinates":[-122.218324,49.018754]},"properties":{"osm_id":"way/397723878","kind":"school","name":"Upper Sumas Elementary School","address":"36321 Vye Road, V3G 1Z5","phone":"+1-604-852-3900","emergency_phone":null,"email":null,"website":"http://uppersumas.sd34.bc.ca","emergency":null,"flood_status":"flooded","flooded_fraction":0.58,"confidence":0.58,"length_m":null,"observed_utc":"2021-11-16T14:20:31.869322Z","osm_date":"2021-11-16","shape":"point"}},{"type":"Feature","geometry":{"type":"Point","coordinates":[-122.264506,49.046326]},"properties":{"osm_id":"way/326106239","kind":"school","name":"William A. Fraser Middle School","address":"34695 Blatchford Way, Abbotsford, V2S 6M6","phone":null,"emergency_phone":null,"email":null,"website":"http://wafms.sd34.bc.ca","emergency":null,"flood_status":"clear","flooded_fraction":0.0,"confidence":1.0,"length_m":null,"observed_utc":"2021-11-16T14:20:31.869322Z","osm_date":"2021-11-16","shape":"point"}},{"type":"Feature","geometry":{"type":"Point","coordinates":[-122.249969,49.034471]},"properties":{"osm_id":"node/4214778075","kind":"community_centre","name":null,"address":null,"phone":null,"emergency_phone":null,"email":null,"website":null,"emergency":null,"flood_status":"clear","flooded_fraction":0.0,"confidence":1.0,"length_m":null,"observed_utc":"2021-11-16T14:20:31.869322Z","osm_date":"2021-11-16","shape":"point"}},{"type":"Feature","geometry":{"type":"Point","coordinates":[-122.270111,49.031949]},"properties":{"osm_id":"way/360968297","kind":"substation","name":"Sumas Way Substation","address":"34473 McClary Avenue, Abbotsford","phone":null,"emergency_phone":null,"email":null,"website":null,"emergency":null,"flood_status":"flooded","flooded_fraction":1.0,"confidence":1.0,"length_m":null,"observed_utc":"2021-11-16T14:20:31.869322Z","osm_date":"2021-11-16","shape":"point"}},{"type":"Feature","geometry":{"type":"Point","coordinates":[-122.24269,49.037237]},"properties":{"osm_id":"node/3362297832","kind":"water_infrastructure","name":"East DeLair Pump Station","address":null,"phone":null,"emergency_phone":null,"email":null,"website":null,"emergency":null,"flood_status":"clear","flooded_fraction":0.0,"confidence":1.0,"length_m":null,"observed_utc":"2021-11-16T14:20:31.869322Z","osm_date":"2021-11-16","shape":"point"}},{"type":"Feature","geometry":{"type":"Point","coordinates":[-122.268002,49.059759]},"properties":{"osm_id":"way/864682788","kind":"water_infrastructure","name":null,"address":null,"phone":null,"emergency_phone":null,"email":null,"website":null,"emergency":null,"flood_status":"clear","flooded_fraction":0.0,"confidence":1.0,"length_m":null,"observed_utc":"2021-11-16T14:20:31.869322Z","osm_date":"2021-11-16","shape":"point"}},{"type":"Feature","geometry":{"type":"Point","coordinates":[-122.259781,49.048907]},"properties":{"osm_id":"node/3746884734","kind":"pharmacy","name":"Co-op Care+ Pharmacy","address":null,"phone":null,"emergency_phone":null,"email":null,"website":null,"emergency":null,"flood_status":"clear","flooded_fraction":0.0,"confidence":1.0,"length_m":null,"observed_utc":"2021-11-16T14:20:31.869322Z","osm_date":"2021-11-16","shape":"point"}},{"type":"Feature","geometry":{"type":"Point","coordinates":[-122.271129,49.038561]},"properties":{"osm_id":"node/4380056591","kind":"pharmacy","name":"Crossroads Pharmacy Remedy'sRx","address":null,"phone":"+1-778-880-0125","emergency_phone":null,"email":null,"website":"https://www.remedys.ca/store/crossroads-pharmacy","emergency":null,"flood_status":"clear","flooded_fraction":0.0,"confidence":1.0,"length_m":null,"observed_utc":"2021-11-16T14:20:31.869322Z","osm_date":"2021-11-16","shape":"point"}},{"type":"Feature","geometry":{"type":"Point","coordinates":[-122.273955,49.057122]},"properties":{"osm_id":"node/3750079925","kind":"pharmacy","name":"Pharmasave","address":null,"phone":"+1-604-853-6696","emergency_phone":null,"email":null,"website":"https://www.pharmasave.com/pharmasave-clayburn-centre/086/mypharmasave.aspx","emergency":null,"flood_status":"clear","flooded_fraction":0.0,"confidence":1.0,"length_m":null,"observed_utc":"2021-11-16T14:20:31.869322Z","osm_date":"2021-11-16","shape":"point"}},{"type":"Feature","geometry":{"type":"Point","coordinates":[-122.269729,49.040902]},"properties":{"osm_id":"node/3636030194","kind":"pharmacy","name":"Save-On-Foods Pharmacy #904","address":null,"phone":"+1-604-504-3041","emergency_phone":null,"email":null,"website":"https://m.saveonfoods.com/store/abbotsford","emergency":null,"flood_status":"clear","flooded_fraction":0.0,"confidence":1.0,"length_m":null,"observed_utc":"2021-11-16T14:20:31.869322Z","osm_date":"2021-11-16","shape":"point"}},{"type":"Feature","geometry":{"type":"Point","coordinates":[-122.221887,49.044013]},"properties":{"osm_id":"way/320329948","kind":"pharmacy","name":"Shoppers Drug Mart","address":"2332 Whatcom Road, V3G 0C1","phone":"+1-604-851-8635","emergency_phone":null,"email":null,"website":"https://www1.shoppersdrugmart.ca/en/store-locator/store/2288","emergency":null,"flood_status":"flooded","flooded_fraction":1.0,"confidence":1.0,"length_m":null,"observed_utc":"2021-11-16T14:20:31.869322Z","osm_date":"2021-11-16","shape":"point"}},{"type":"Feature","geometry":{"type":"Point","coordinates":[-122.270595,49.035149]},"properties":{"osm_id":"node/3329408193","kind":"pharmacy","name":"Walmart Pharmacy","address":null,"phone":null,"emergency_phone":null,"email":null,"website":"https://www.walmart.ca/en/walmart-abbotsford-east-supercentre/3019","emergency":null,"flood_status":"clear","flooded_fraction":0.0,"confidence":1.0,"length_m":null,"observed_utc":"2021-11-16T14:20:31.869322Z","osm_date":"2021-11-16","shape":"point"}},{"type":"Feature","geometry":{"type":"Point","coordinates":[-122.222855,49.045071]},"properties":{"osm_id":"node/3308656669","kind":"pharmacy","name":null,"address":null,"phone":"+1-604-851-9626","emergency_phone":null,"email":null,"website":"https://m.saveonfoods.com/store/whatcom","emergency":null,"flood_status":"clear","flooded_fraction":0.1,"confidence":0.9,"length_m":null,"observed_utc":"2021-11-16T14:20:31.869322Z","osm_date":"2021-11-16","shape":"point"}},{"type":"Feature","geometry":{"type":"Point","coordinates":[-122.26933,49.037839]},"properties":{"osm_id":"way/204197716","kind":"fuel","name":"Chevron","address":null,"phone":null,"emergency_phone":null,"email":null,"website":null,"emergency":null,"flood_status":"clear","flooded_fraction":0.0,"confidence":1.0,"length_m":null,"observed_utc":"2021-11-16T14:20:31.869322Z","osm_date":"2021-11-16","shape":"point"}},{"type":"Feature","geometry":{"type":"Point","coordinates":[-122.12055,49.089199]},"properties":{"osm_id":"way/979720302","kind":"fuel","name":"Chevron","address":null,"phone":null,"emergency_phone":null,"email":null,"website":null,"emergency":null,"flood_status":"clear","flooded_fraction":0.0,"confidence":1.0,"length_m":null,"observed_utc":"2021-11-16T14:20:31.869322Z","osm_date":"2021-11-16","shape":"point"}},{"type":"Feature","geometry":{"type":"Point","coordinates":[-122.26593,49.016372]},"properties":{"osm_id":"way/387961009","kind":"fuel","name":"Chevron Abbotsford Commercial Cardlock","address":null,"phone":null,"emergency_phone":null,"email":null,"website":"http://www.chevron.ca/our-businesses/retail-commercial/cardlock-directory","emergency":null,"flood_status":"clear","flooded_fraction":0.1,"confidence":0.9,"length_m":null,"observed_utc":"2021-11-16T14:20:31.869322Z","osm_date":"2021-11-16","shape":"point"}},{"type":"Feature","geometry":{"type":"Point","coordinates":[-122.267215,49.023608]},"properties":{"osm_id":"way/407493075","kind":"fuel","name":"Costco Gasoline","address":"1127 Sumas Way","phone":null,"emergency_phone":null,"email":null,"website":null,"emergency":null,"flood_status":"flooded","flooded_fraction":1.0,"confidence":1.0,"length_m":null,"observed_utc":"2021-11-16T14:20:31.869322Z","osm_date":"2021-11-16","shape":"point"}},{"type":"Feature","geometry":{"type":"Point","coordinates":[-122.222191,49.041909]},"properties":{"osm_id":"way/258552138","kind":"fuel","name":"Esso","address":null,"phone":null,"emergency_phone":null,"email":null,"website":null,"emergency":null,"flood_status":"flooded","flooded_fraction":1.0,"confidence":1.0,"length_m":null,"observed_utc":"2021-11-16T14:20:31.869322Z","osm_date":"2021-11-16","shape":"point"}},{"type":"Feature","geometry":{"type":"Point","coordinates":[-122.268534,49.047177]},"properties":{"osm_id":"way/370807507","kind":"fuel","name":"Esso","address":"34515 Old Yale Road, Abbotsford, V2S 8G2","phone":null,"emergency_phone":null,"email":null,"website":"http://www.essostations.ca/26966-old-yale-road-esso-abbotsford","emergency":null,"flood_status":"clear","flooded_fraction":0.0,"confidence":1.0,"length_m":null,"observed_utc":"2021-11-16T14:20:31.869322Z","osm_date":"2021-11-16","shape":"point"}},{"type":"Feature","geometry":{"type":"Point","coordinates":[-122.265863,49.019601]},"properties":{"osm_id":"way/387943961","kind":"fuel","name":"Flying J","address":null,"phone":null,"emergency_phone":null,"email":null,"website":null,"emergency":null,"flood_status":"flooded","flooded_fraction":1.0,"confidence":1.0,"length_m":null,"observed_utc":"2021-11-16T14:20:31.869322Z","osm_date":"2021-11-16","shape":"point"}},{"type":"Feature","geometry":{"type":"Point","coordinates":[-122.270205,49.038363]},"properties":{"osm_id":"way/278752896","kind":"fuel","name":"Husky","address":null,"phone":"+1-604-852-9000","emergency_phone":null,"email":null,"website":null,"emergency":null,"flood_status":"clear","flooded_fraction":0.0,"confidence":1.0,"length_m":null,"observed_utc":"2021-11-16T14:20:31.869322Z","osm_date":"2021-11-16","shape":"point"}},{"type":"Feature","geometry":{"type":"Point","coordinates":[-122.26792,49.037922]},"properties":{"osm_id":"way/204197720","kind":"fuel","name":"Petro-Canada","address":null,"phone":null,"emergency_phone":null,"email":null,"website":null,"emergency":null,"flood_status":"clear","flooded_fraction":0.0,"confidence":1.0,"length_m":null,"observed_utc":"2021-11-16T14:20:31.869322Z","osm_date":"2021-11-16","shape":"point"}},{"type":"Feature","geometry":{"type":"Point","coordinates":[-122.272085,49.056841]},"properties":{"osm_id":"way/297583534","kind":"fuel","name":"Petro-Canada","address":"3027 Immel Street, V2S 4L3","phone":"+1-604-850-0977","emergency_phone":null,"email":null,"website":"https://m.petro-canada.ca/en/station-locator-details.aspx?id=69935&slat=49.057055&slng=-122.273432","emergency":null,"flood_status":"clear","flooded_fraction":0.0,"confidence":1.0,"length_m":null,"observed_utc":"2021-11-16T14:20:31.869322Z","osm_date":"2021-11-16","shape":"point"}},{"type":"Feature","geometry":{"type":"Point","coordinates":[-122.220822,49.040602]},"properties":{"osm_id":"way/372667523","kind":"fuel","name":"Petro-Canada","address":null,"phone":null,"emergency_phone":null,"email":null,"website":"https://m.petro-canada.ca/en/station-locator-details.aspx?id=69830&slat=49.067743&slng=-122.193570","emergency":null,"flood_status":"flooded","flooded_fraction":1.0,"confidence":1.0,"length_m":null,"observed_utc":"2021-11-16T14:20:31.869322Z","osm_date":"2021-11-16","shape":"point"}},{"type":"Feature","geometry":{"type":"Point","coordinates":[-122.272021,49.055823]},"properties":{"osm_id":"way/297583529","kind":"fuel","name":"Shell","address":null,"phone":"+1-604-852-6610","emergency_phone":null,"email":null,"website":"http://shell.ca","emergency":null,"flood_status":"clear","flooded_fraction":0.0,"confidence":1.0,"length_m":null,"observed_utc":"2021-11-16T14:20:31.869322Z","osm_date":"2021-11-16","shape":"point"}},{"type":"Feature","geometry":{"type":"Point","coordinates":[-122.221624,49.0401]},"properties":{"osm_id":"way/321231249","kind":"fuel","name":"Shell","address":"2061 Whatcom Road","phone":null,"emergency_phone":null,"email":null,"website":null,"emergency":null,"flood_status":"flooded","flooded_fraction":1.0,"confidence":1.0,"length_m":null,"observed_utc":"2021-11-16T14:20:31.869322Z","osm_date":"2021-11-16","shape":"point"}},{"type":"Feature","geometry":{"type":"Point","coordinates":[-122.264614,49.001287]},"properties":{"osm_id":"way/303102255","kind":"fuel","name":"USA Gasoline","address":null,"phone":null,"emergency_phone":null,"email":null,"website":null,"emergency":null,"flood_status":"clear","flooded_fraction":0.0,"confidence":1.0,"length_m":null,"observed_utc":"2021-11-16T14:20:31.869322Z","osm_date":"2021-11-16","shape":"point"}},{"type":"Feature","geometry":{"type":"Point","coordinates":[-122.223216,49.04291]},"properties":{"osm_id":"way/406324536","kind":"fuel","name":null,"address":null,"phone":null,"emergency_phone":null,"email":null,"website":"https://www.chevronwithtechron.ca/","emergency":null,"flood_status":"flooded","flooded_fraction":0.75,"confidence":0.75,"length_m":null,"observed_utc":"2021-11-16T14:20:31.869322Z","osm_date":"2021-11-16","shape":"point"}}]}